NORAD_CAT_ID,OBJECT_NAME,OBJECT_TYPE,EPOCH,MEAN_MOTION,ECCENTRICITY,INCLINATION,RA_OF_ASC_NODE,ARG_OF_PERICENTER,MEAN_ANOMALY,BSTAR,MEAN_MOTION_DOT,MEAN_MOTION_DDOT,TLE_LINE0,TLE_LINE1,TLE_LINE2,SEMIMAJOR_AXIS,PERIOD,APOGEE,PERIGEE,DECAYED
51112.0,STARLINK-3374,PAYLOAD,2023-02-13 09:08:14,15.08834221,0.0001239,53.2151,278.3849,92.2503,267.8631,0.00044788,6.846e-05,0.0,0 STARLINK-3374,1 51112U 22005J   23044.38072565  .00006846  00000-0  44788-3 0  9996,2 51112  53.2151 278.3849 0001239  92.2503 267.8631 15.08834221 59759,6917.898,95.438,540.62,538.906,0.0
51112.0,STARLINK-3374,PAYLOAD,2023-02-13 15:29:47,15.08843386,0.0001285,53.2147,277.1948,94.2749,265.839,0.00039039,5.931e-05,0.0,0 STARLINK-3374,1 51112U 22005J   23044.64568401  .00005931  00000-0  39039-3 0  9991,2 51112  53.2147 277.1948 0001285  94.2749 265.8390 15.08843386 60907,6917.87,95.437,540.624,538.846,0.0
51112.0,STARLINK-3374,PAYLOAD,2023-02-14 01:02:05,15.08868783,0.0001705,53.212,275.4127,87.5251,272.5937,0.0010064,0.00015778,0.0,0 STARLINK-3374,1 51112U 22005J   23045.04311547  .00015778  00000-0  10064-2 0  9999,2 51112  53.2120 275.4127 0001705  87.5251 272.5937 15.08868783 60964,6917.792,95.436,540.837,538.478,0.0
51112.0,STARLINK-3374,PAYLOAD,2023-02-14 15:20:33,15.08855788,0.0002592,53.212,272.7349,90.6826,269.4463,0.00027002,4.014e-05,0.0,0 STARLINK-3374,1 51112U 22005J   23045.63927447  .00004014  00000-0  27002-3 0  9998,2 51112  53.2120 272.7349 0002592  90.6826 269.4463 15.08855788 61059,6917.832,95.437,541.49,537.904,0.0
51112.0,STARLINK-3374,PAYLOAD,2023-02-14 21:42:05,15.08841554,6.76e-05,53.2161,271.5465,98.0262,262.0807,-0.00012232,-2.234e-05,0.0,0 STARLINK-3374,1 51112U 22005J   23045.90423508 -.00002234  00000-0 -12232-3 0  9990,2 51112  53.2161 271.5465 0000676  98.0262 262.0807 15.08841554 61098,6917.876,95.437,540.208,539.273,0.0
51112.0,STARLINK-3374,PAYLOAD,2023-02-15 13:35:57,15.08839237,3.26e-05,53.2159,268.5741,91.1362,268.9667,3.0621e-05,2e-06,0.0,0 STARLINK-3374,1 51112U 22005J   23046.56663834  .00000200  00000-0  30621-4 0  9993,2 51112  53.2159 268.5741 0000326  91.1362 268.9667 15.08839237 60087,6917.883,95.438,539.973,539.522,0.0
51112.0,STARLINK-3374,PAYLOAD,2023-02-16 13:26:44,15.0884291,5.1e-06,53.2176,264.1148,332.3423,27.7567,0.00033563,5.059e-05,0.0,0 STARLINK-3374,1 51112U 22005J   23047.56024078  .00005059  00000-0  33563-3 0  9999,2 51112  53.2176 264.1148 0000051 332.3423  27.7567 15.08842910 61344,6917.871,95.437,539.772,539.701,0.0
51112.0,STARLINK-3374,PAYLOAD,2023-02-16 21:23:40,15.08844341,0.0001342,53.2154,262.6262,100.5542,259.5601,0.00017867,2.557e-05,0.0,0 STARLINK-3374,1 51112U 22005J   23047.89143996  .00002557  00000-0  17867-3 0  9995,2 51112  53.2154 262.6262 0001342 100.5542 259.5601 15.08844341 60287,6917.867,95.437,540.66,538.804,0.0
51112.0,STARLINK-3374,PAYLOAD,2023-02-17 13:17:32,15.08832299,0.0001479,53.215,259.6524,92.0302,268.086,-6.2469e-05,-1.282e-05,0.0,0 STARLINK-3374,1 51112U 22005J   23048.55384701 -.00001282  00000-0 -62469-4 0  9995,2 51112  53.2150 259.6524 0001479  92.0302 268.0860 15.08832299 61495,6917.904,95.438,540.792,538.746,0.0
51112.0,STARLINK-3374,PAYLOAD,2023-02-17 21:14:28,15.08831854,0.0001422,53.2165,258.167,99.5513,260.564,-2.3266e-05,-6.58e-06,0.0,0 STARLINK-3374,1 51112U 22005J   23048.88504881 -.00000658  00000-0 -23266-4 0  9992,2 51112  53.2165 258.1670 0001422  99.5513 260.5640 15.08831854 60433,6917.905,95.438,540.754,538.787,0.0
51112.0,STARLINK-3374,PAYLOAD,2023-02-18 14:43:42,15.08842151,0.0001377,53.2151,254.8944,90.0642,270.0508,0.0001757,2.51e-05,0.0,0 STARLINK-3374,1 51112U 22005J   23049.61368711  .00002510  00000-0  17570-3 0  9991,2 51112  53.2151 254.8944 0001377  90.0642 270.0508 15.08842151 60546,6917.874,95.437,540.691,538.786,0.0
51112.0,STARLINK-3374,PAYLOAD,2023-02-19 12:59:06,15.0884146,0.0001467,53.2148,250.731,88.815,271.301,0.00024081,3.547e-05,0.0,0 STARLINK-3374,1 51112U 22005J   23050.54104859  .00003547  00000-0  24081-3 0  9992,2 51112  53.2148 250.7310 0001467  88.8150 271.3010 15.08841460 60682,6917.876,95.437,540.756,538.726,0.0
51112.0,STARLINK-3374,PAYLOAD,2023-02-19 22:31:25,15.08847181,0.0001415,53.2135,248.9463,89.1663,270.9491,0.00020704,3.009e-05,0.0,0 STARLINK-3374,1 51112U 22005J   23050.93848441  .00003009  00000-0  20704-3 0  9998,2 51112  53.2135 248.9463 0001415  89.1663 270.9491 15.08847181 61856,6917.858,95.437,540.702,538.745,0.0
51112.0,STARLINK-3374,PAYLOAD,2023-02-20 06:28:20,15.08839757,0.0001406,53.2121,247.4593,87.7521,272.3632,3.7522e-05,3.09e-06,0.0,0 STARLINK-3374,1 51112U 22005J   23051.26968707  .00000309  00000-0  37522-4 0  9990,2 51112  53.2121 247.4593 0001406  87.7521 272.3632 15.08839757 61905,6917.881,95.438,540.719,538.773,0.0
51112.0,STARLINK-3374,PAYLOAD,2023-02-20 12:49:53,15.08841798,0.0001394,53.2143,246.2698,86.5389,273.5762,5.8978e-05,6.51e-06,0.0,0 STARLINK-3374,1 51112U 22005J   23051.53464746  .00000651  00000-0  58978-4 0  9992,2 51112  53.2143 246.2698 0001394  86.5389 273.5762 15.08841798 60833,6917.875,95.437,540.704,538.776,0.0
51112.0,STARLINK-3374,PAYLOAD,2023-02-21 12:40:40,15.08842788,0.0001308,53.2133,241.8091,84.3385,275.7756,0.00011645,1.566e-05,0.0,0 STARLINK-3374,1 51112U 22005J   23052.52824584  .00001566  00000-0  11645-3 0  9997,2 51112  53.2133 241.8091 0001308  84.3385 275.7756 15.08842788 62094,6917.872,95.437,540.642,538.832,0.0
51112.0,STARLINK-3374,PAYLOAD,2023-02-21 19:02:12,15.08846199,0.0001302,53.2135,240.6195,83.6085,276.5055,0.00014365,1.999e-05,0.0,0 STARLINK-3374,1 51112U 22005J   23052.79320381  .00001999  00000-0  14365-3 0  9994,2 51112  53.2135 240.6195 0001302  83.6085 276.5055 15.08846199 61024,6917.861,95.437,540.627,538.826,0.0
51112.0,STARLINK-3374,PAYLOAD,2023-02-22 12:31:27,15.08838005,0.0001329,53.2144,237.3472,93.2152,266.8992,8.775e-05,1.109e-05,0.0,0 STARLINK-3374,1 51112U 22005J   23053.52184670  .00001109  00000-0  87750-4 0  9997,2 51112  53.2144 237.3472 0001329  93.2152 266.8992 15.08838005 61137,6917.886,95.438,540.671,538.832,0.0
51112.0,STARLINK-3374,PAYLOAD,2023-02-22 18:52:59,15.08842714,0.0001247,53.2142,236.1584,85.5924,274.521,0.000112,1.495e-05,0.0,0 STARLINK-3374,1 51112U 22005J   23053.78680456  .00001495  00000-0  11200-3 0  9992,2 51112  53.2142 236.1584 0001247  85.5924 274.5210 15.08842714 62284,6917.872,95.437,540.6,538.874,0.0
51112.0,STARLINK-3374,PAYLOAD,2023-02-23 12:22:14,15.08839672,0.0001321,53.2136,232.8872,85.5266,274.5877,2.8767e-05,1.7e-06,0.0,0 STARLINK-3374,1 51112U 22005J   23054.51544555  .00000170  00000-0  28767-4 0  9999,2 51112  53.2136 232.8872 0001321  85.5266 274.5877 15.08839672 61289,6917.881,95.438,540.66,538.833,0.0
51112.0,STARLINK-3374,PAYLOAD,2023-02-23 21:54:32,15.0884752,0.0001255,53.2141,231.1026,83.716,276.3975,0.00011668,1.57e-05,0.0,0 STARLINK-3374,1 51112U 22005J   23054.91288127  .00001570  00000-0  11668-3 0  9999,2 51112  53.2141 231.1026 0001255  83.7160 276.3975 15.08847520 62457,6917.857,95.437,540.591,538.854,0.0
51112.0,STARLINK-3374,PAYLOAD,2023-02-24 12:13:01,15.08833869,0.0001336,53.2139,228.4264,89.2493,270.8652,-9.4149e-06,-4.38e-06,0.0,0 STARLINK-3374,1 51112U 22005J   23055.50904824 -.00000438  00000-0 -94149-5 0  9995,2 51112  53.2139 228.4264 0001336  89.2493 270.8652 15.08833869 62549,6917.899,95.438,540.688,538.84,0.0
51112.0,STARLINK-3374,PAYLOAD,2023-02-24 21:45:20,15.08837639,0.0001178,53.2152,226.6429,81.8242,278.2884,5.6241e-05,6.07e-06,0.0,0 STARLINK-3374,1 51112U 22005J   23055.90648956  .00000607  00000-0  56241-4 0  9996,2 51112  53.2152 226.6429 0001178  81.8242 278.2884 15.08837639 61492,6917.888,95.438,540.568,538.938,0.0
51112.0,STARLINK-3374,PAYLOAD,2023-02-25 04:06:53,15.08834426,9.33e-05,53.215,225.4523,71.0931,289.0162,5.4593e-05,5.81e-06,0.0,0 STARLINK-3374,1 51112U 22005J   23056.17145217  .00000581  00000-0  54593-4 0  9997,2 51112  53.2150 225.4523 0000933  71.0931 289.0162 15.08834426 61531,6917.897,95.438,540.408,539.117,0.0
51112.0,STARLINK-3374,PAYLOAD,2023-02-25 20:00:44,15.0884036,0.0001196,53.2148,222.479,84.609,275.5038,7.9518e-05,9.78e-06,0.0,0 STARLINK-3374,1 51112U 22005J   23056.83385061  .00000978  00000-0  79518-4 0  9997,2 51112  53.2148 222.4790 0001196  84.6090 275.5038 15.08840360 62749,6917.879,95.438,540.572,538.917,0.0
51112.0,STARLINK-3374,PAYLOAD,2023-02-26 11:54:35,15.08841303,0.0001144,53.2139,219.5047,83.2174,276.8948,0.00019773,2.861e-05,0.0,0 STARLINK-3374,1 51112U 22005J   23057.49624932  .00002861  00000-0  19773-3 0  9992,2 51112  53.2139 219.5047 0001144  83.2174 276.8948 15.08841303 61732,6917.876,95.437,540.533,538.95,0.0
51112.0,STARLINK-3374,PAYLOAD,2023-02-26 19:51:31,15.08852433,0.0001274,53.2145,218.0174,80.9172,279.1964,0.00028718,4.287e-05,0.0,0 STARLINK-3374,1 51112U 22005J   23057.82744342  .00004287  00000-0  28718-3 0  9990,2 51112  53.2145 218.0174 0001274  80.9172 279.1964 15.08852433 62898,6917.842,95.437,540.589,538.826,0.0
51112.0,STARLINK-3374,PAYLOAD,2023-02-27 10:09:59,15.0883877,9.78e-05,53.2159,215.3409,93.4073,266.7031,0.00012933,1.771e-05,0.0,0 STARLINK-3374,1 51112U 22005J   23058.42361101  .00001771  00000-0  12933-3 0  9992,2 51112  53.2159 215.3409 0000978  93.4073 266.7031 15.08838770 62988,6917.884,95.438,540.426,539.073,0.0
51112.0,STARLINK-3374,PAYLOAD,2023-02-27 18:06:54,15.08867939,0.0001217,53.214,213.8556,91.078,269.0352,0.00070312,0.00010928,0.0,0 STARLINK-3374,1 51112U 22005J   23058.75479977  .00010928  00000-0  70312-3 0  9998,2 51112  53.2140 213.8556 0001217  91.0780 269.0352 15.08867939 63038,6917.795,95.436,540.502,538.818,0.0
51112.0,STARLINK-3374,PAYLOAD,2023-02-27 19:42:17,15.08864871,0.0001062,53.2137,213.5574,85.8834,274.228,0.00083547,0.00013043,0.0,0 STARLINK-3374,1 51112U 22005J   23058.82104072  .00013043  00000-0  83547-3 0  9992,2 51112  53.2137 213.5574 0001062  85.8834 274.2280 15.08864871 61937,6917.804,95.436,540.404,538.935,0.0
